ORBCOMM FM33            
1 25983U 99065D   25268.89157105  .00002183  00000+0  72810-3 0  9999
2 25983  45.0278 240.1065 0008600 225.2102 134.8049 14.40205543350589
ORBCOMM FM36            
1 25984U 99065E   25267.66750154  .00002141  00000+0  74238-3 0  9997
2 25984  45.0407 339.3801 0001363 128.7164 231.3807 14.38361429348740
ORBCOMM FM35            
1 25985U 99065F   25268.55329289  .00001801  00000+0  64538-3 0  9992
2 25985  45.0411 341.0183 0005197 199.7944 160.2704 14.37307339349221
ORBCOMM FM34            
1 25986U 99065G   25268.58795980  .00001655  00000+0  59712-3 0  9996
2 25986  45.0406 341.3091 0003775 160.4593 199.6400 14.37305073349347
ORBCOMM FM38            
1 33060U 08031A   25268.84050852  .00003989  00000+0  52753-3 0  9992
2 33060  48.4389 195.4435 0004481 114.2425 245.8960 14.81713874929678
ORBCOMM FM41            
1 33061U 08031B   25268.80958280  .00004194  00000+0  55872-3 0  9995
2 33061  48.4426 203.7210 0003697  95.6550 289.1161 14.81286773929154
ORBCOMM FM29            
1 33062U 08031C   25268.85515512  .00004487  00000+0  59413-3 0  9998
2 33062  48.4375 211.1858 0005328  95.7960 295.5977 14.81406044929070
ORBCOMM FM39            
1 33063U 08031D   25268.91246620  .00003981  00000+0  54926-3 0  9999
2 33063  48.4388 236.3049 0006329  64.6847 295.4723 14.79910196928710
